[{"OBJECT_NAME":"OBJECT B","OBJECT_ID":"2024-203B","EPOCH":"2026-03-09T23:52:52.928256","MEAN_MOTION":15.27506959,"ECCENTRICITY":0.00103904,"INCLINATION":97.4268,"RA_OF_ASC_NODE":139.5887,"ARG_OF_PERICENTER":321.1475,"MEAN_ANOMALY":38.9016,"EPHEMERIS_TYPE":0,"CLASSIFICATION_TYPE":"U","NORAD_CAT_ID":61870,"ELEMENT_SET_NO":999,"REV_AT_EPOCH":7381,"BSTAR":0.00063263842,"MEAN_MOTION_DOT":0.00016997,"MEAN_MOTION_DDOT":0},{"OBJECT_NAME":"STARLINK-35184","OBJECT_ID":"2025-198Q","EPOCH":"2026-03-09T21:07:00.305760","MEAN_MOTION":15.30206003,"ECCENTRICITY":0.00011287,"INCLINATION":53.1599,"RA_OF_ASC_NODE":269.799,"ARG_OF_PERICENTER":71.233,"MEAN_ANOMALY":288.8793,"EPHEMERIS_TYPE":0,"CLASSIFICATION_TYPE":"U","NORAD_CAT_ID":65506,"ELEMENT_SET_NO":999,"REV_AT_EPOCH":2865,"BSTAR":0.0010003717,"MEAN_MOTION_DOT":0.00029392,"MEAN_MOTION_DDOT":0}]
